[{"OBJECT_NAME":"OBJECT C","OBJECT_ID":"2024-085C","EPOCH":"2026-03-09T22:49:58.289376","MEAN_MOTION":15.31893958,"ECCENTRICITY":0.00283931,"INCLINATION":97.3357,"RA_OF_ASC_NODE":145.6975,"ARG_OF_PERICENTER":37.3887,"MEAN_ANOMALY":322.9323,"EPHEMERIS_TYPE":0,"CLASSIFICATION_TYPE":"U","NORAD_CAT_ID":59679,"ELEMENT_SET_NO":999,"REV_AT_EPOCH":10244,"BSTAR":0.00039740634,"MEAN_MOTION_DOT":0.0001232,"MEAN_MOTION_DDOT":0},{"OBJECT_NAME":"STARLINK-36456","OBJECT_ID":"2026-003Z","EPOCH":"2026-03-09T11:49:39.908928","MEAN_MOTION":15.27597956,"ECCENTRICITY":9.028e-5,"INCLINATION":42.9995,"RA_OF_ASC_NODE":228.1823,"ARG_OF_PERICENTER":209.28,"MEAN_ANOMALY":150.8002,"EPHEMERIS_TYPE":0,"CLASSIFICATION_TYPE":"U","NORAD_CAT_ID":67357,"ELEMENT_SET_NO":999,"REV_AT_EPOCH":879,"BSTAR":0.00096112705,"MEAN_MOTION_DOT":0.00026295,"MEAN_MOTION_DDOT":0}]
